KUIPER-00167            
1 65780U 25217U   26064.25735029  .00002399  00000+0  34318-3 0  9998
2 65780  51.8969  65.1667 0000869  46.7827 313.3207 14.79975308 24181
KUIPER-00168            
1 65781U 25217V   26064.34372200  .00004271  00000+0  58916-3 0  9998
2 65781  51.9004  47.3174 0001061  79.4696 280.6386 14.79914334 24445
KUIPER-00169            
1 65782U 25217W   26064.33900090  .00006361  00000+0  86511-3 0  9996
2 65782  51.9014  52.3462 0000749  90.7064 269.3984 14.79807627 24376
KUIPER-00170            
1 65783U 25217X   26064.67020462 -.00000501  00000+0 -36725-4 0  9995
2 65783  51.8999  55.8551 0000541  78.9690 281.1333 14.79920672 24352
KUIPER-00172            
1 65785U 25217Z   26064.83334490 -.00021922  00000+0 -25099-2 0  9994
2 65785  51.8978  35.9226 0001208 300.5359 107.0615 14.85272569  3141
KUIPER-00173            
1 65786U 25217AA  26064.57351096 -.00100902  00000+0 -12773-1 0  9997
2 65786  51.9036  50.6054 0001435   1.3783 358.7184 14.81950325 24418
KUIPER-00174            
1 65787U 25217AB  26064.64761411  .00004603  00000+0  63234-3 0  9991
2 65787  51.9039  45.9991 0001245  64.6408 295.4683 14.79934240 24487
KUIPER-00176            
1 65788U 25217AC  26064.42866109 -.00003297  00000+0 -40366-3 0  9999
2 65788  51.9017  61.9388 0000676  86.3146 273.7893 14.79932819 24245
KUIPER-00101            
1 65947U 25228A   26064.30587848  .00001277  00000+0  19647-3 0  9997
2 65947  51.9032  19.9631 0000569 116.5320 243.5700 14.79926940 22589
KUIPER-00113            
1 65948U 25228B   26064.27743166  .00007139  00000+0  96325-3 0  9992
2 65948  51.9001  15.1045 0000860 104.3033 255.8025 14.79988297 22649
KUIPER-00117            
1 65949U 25228C   26064.84881914  .00004090  00000+0  56511-3 0  9996
2 65949  51.9008  15.0818 0000844  94.7655 265.3404 14.79940789 22694
KUIPER-00121            
1 65950U 25228D   26064.55026223  .00001268  00000+0  19531-3 0  9995
2 65950  51.9020  11.3966 0001142 112.7660 247.3423 14.79938854 22727
KUIPER-00122            
1 65951U 25228E   26064.06575563  .00002746  00000+0  39032-3 0  9998
2 65951  51.9023  23.5060 0000670  97.9430 262.1608 14.79793574 22510
KUIPER-00123            
1 65952U 25228F   26064.84355118  .00006409  00000+0  86807-3 0  9999
2 65952  51.8997  20.1004 0001049  97.2833 262.8249 14.79975092 22629
KUIPER-00124            
1 65953U 25228G   26064.58139271  .00002321  00000+0  33328-3 0  9990
2 65953  51.9010  13.7479 0000423  80.0047 280.0963 14.79937815 22696
KUIPER-00125            
1 65954U 25228H   26064.53004401  .00007192  00000+0  97105-3 0  9996
2 65954  51.9032 358.9968 0000930 115.6002 244.5056 14.79950877 22890
KUIPER-00126            
1 65955U 25228J   26064.60977470  .00000343  00000+0  74029-4 0  9992
2 65955  51.9000  18.6431 0001715  81.0911 279.0245 14.79922949 22621
